AQUA                    
1 27424U 02022A   21295.15021017  .00000141  00000-0  41449-4 0  9993
2 27424  98.2196 234.7086 0000549  84.0205 338.1202 14.57091753 35529
